ORBCOMM FM103           
1 40091U 14040F   24234.58305398  .00002644  00000+0  62033-3 0  9991
2 40091  47.0068 351.5577 0002201 316.4065  43.6646 14.56929458520395
ORBCOMM FM114           
1 41179U 15081A   24234.47550418  .00002124  00000+0  50533-3 0  9993
2 41179  47.0008 261.2776 0001646   7.2865 352.8044 14.56955800460749
ORBCOMM FM119           
1 41180U 15081B   24234.31365099  .00002583  00000+0  60710-3 0  9994
2 41180  46.9994 171.2659 0000651 116.3950 243.7002 14.56903901461978
ORBCOMM FM105           
1 41181U 15081C   24234.74718239  .00001316  00000+0  42222-3 0  9991
2 41181  47.0012 145.6363 0001463  40.1627 319.9361 14.44565226457550
ORBCOMM FM110           
1 41182U 15081D   24234.38382337  .00002000  00000+0  47733-3 0  9991
2 41182  46.9997 261.1050 0002619 252.5688 107.4911 14.57017297460603
ORBCOMM FM118           
1 41183U 15081E   24234.49878918  .00001833  00000+0  44089-3 0  9993
2 41183  47.0021 260.8953 0002792 247.2071 112.8519 14.57003507460806
ORBCOMM FM112           
1 41184U 15081F   24234.83933762  .00002907  00000+0  67874-3 0  9991
2 41184  46.9978 167.9873 0001224  76.5513 283.5509 14.56891820462042
ORBCOMM FM113           
1 41185U 15081G   24234.81646958  .00002670  00000+0  62623-3 0  9992
2 41185  46.9997 168.3774 0000762  98.8566 261.2406 14.56900741462042
