<?xml version="1.0" encoding="UTF-8"?>
<ndm xmlns:xsi="http://www.w3.org/2001/XMLSchema-instance" xsi:noNamespaceSchemaLocation="https://sanaregistry.org/r/ndmxml_unqualified/ndmxml-2.0.0-master-2.0.xsd">
<omm id="CCSDS_OMM_VERS" version="2.0">
<header><CREATION_DATE/><ORIGINATOR/></header><body><segment><metadata><OBJECT_NAME>ORBCOMM FM103</OBJECT_NAME><OBJECT_ID>2014-040F</OBJECT_ID><CENTER_NAME>EARTH</CENTER_NAME><REF_FRAME>TEME</REF_FRAME><TIME_SYSTEM>UTC</TIME_SYSTEM><MEAN_ELEMENT_THEORY>SGP4</MEAN_ELEMENT_THEORY></metadata><data><meanElements><EPOCH>2024-08-21T13:59:35.863872</EPOCH><MEAN_MOTION>14.56929458</MEAN_MOTION><ECCENTRICITY>.0002201</ECCENTRICITY><INCLINATION>47.0068</INCLINATION><RA_OF_ASC_NODE>351.5577</RA_OF_ASC_NODE><ARG_OF_PERICENTER>316.4065</ARG_OF_PERICENTER><MEAN_ANOMALY>43.6646</MEAN_ANOMALY></meanElements><tleParameters><EPHEMERIS_TYPE>0</EPHEMERIS_TYPE><CLASSIFICATION_TYPE>U</CLASSIFICATION_TYPE><NORAD_CAT_ID>40091</NORAD_CAT_ID><ELEMENT_SET_NO>999</ELEMENT_SET_NO><REV_AT_EPOCH>52039</REV_AT_EPOCH><BSTAR>.62033E-3</BSTAR><MEAN_MOTION_DOT>.2644E-4</MEAN_MOTION_DOT><MEAN_MOTION_DDOT>0</MEAN_MOTION_DDOT></tleParameters></data></segment></body></omm>
<omm id="CCSDS_OMM_VERS" version="2.0">
<header><CREATION_DATE/><ORIGINATOR/></header><body><segment><metadata><OBJECT_NAME>ORBCOMM FM114</OBJECT_NAME><OBJECT_ID>2015-081A</OBJECT_ID><CENTER_NAME>EARTH</CENTER_NAME><REF_FRAME>TEME</REF_FRAME><TIME_SYSTEM>UTC</TIME_SYSTEM><MEAN_ELEMENT_THEORY>SGP4</MEAN_ELEMENT_THEORY></metadata><data><meanElements><EPOCH>2024-08-21T11:24:43.561152</EPOCH><MEAN_MOTION>14.56955800</MEAN_MOTION><ECCENTRICITY>.0001646</ECCENTRICITY><INCLINATION>47.0008</INCLINATION><RA_OF_ASC_NODE>261.2776</RA_OF_ASC_NODE><ARG_OF_PERICENTER>7.2865</ARG_OF_PERICENTER><MEAN_ANOMALY>352.8044</MEAN_ANOMALY></meanElements><tleParameters><EPHEMERIS_TYPE>0</EPHEMERIS_TYPE><CLASSIFICATION_TYPE>U</CLASSIFICATION_TYPE><NORAD_CAT_ID>41179</NORAD_CAT_ID><ELEMENT_SET_NO>999</ELEMENT_SET_NO><REV_AT_EPOCH>46074</REV_AT_EPOCH><BSTAR>.50533E-3</BSTAR><MEAN_MOTION_DOT>.2124E-4</MEAN_MOTION_DOT><MEAN_MOTION_DDOT>0</MEAN_MOTION_DDOT></tleParameters></data></segment></body></omm>
<omm id="CCSDS_OMM_VERS" version="2.0">
<header><CREATION_DATE/><ORIGINATOR/></header><body><segment><metadata><OBJECT_NAME>ORBCOMM FM119</OBJECT_NAME><OBJECT_ID>2015-081B</OBJECT_ID><CENTER_NAME>EARTH</CENTER_NAME><REF_FRAME>TEME</REF_FRAME><TIME_SYSTEM>UTC</TIME_SYSTEM><MEAN_ELEMENT_THEORY>SGP4</MEAN_ELEMENT_THEORY></metadata><data><meanElements><EPOCH>2024-08-21T07:31:39.445536</EPOCH><MEAN_MOTION>14.56903901</MEAN_MOTION><ECCENTRICITY>.0000651</ECCENTRICITY><INCLINATION>46.9994</INCLINATION><RA_OF_ASC_NODE>171.2659</RA_OF_ASC_NODE><ARG_OF_PERICENTER>116.3950</ARG_OF_PERICENTER><MEAN_ANOMALY>243.7002</MEAN_ANOMALY></meanElements><tleParameters><EPHEMERIS_TYPE>0</EPHEMERIS_TYPE><CLASSIFICATION_TYPE>U</CLASSIFICATION_TYPE><NORAD_CAT_ID>41180</NORAD_CAT_ID><ELEMENT_SET_NO>999</ELEMENT_SET_NO><REV_AT_EPOCH>46197</REV_AT_EPOCH><BSTAR>.6071E-3</BSTAR><MEAN_MOTION_DOT>.2583E-4</MEAN_MOTION_DOT><MEAN_MOTION_DDOT>0</MEAN_MOTION_DDOT></tleParameters></data></segment></body></omm>
<omm id="CCSDS_OMM_VERS" version="2.0">
<header><CREATION_DATE/><ORIGINATOR/></header><body><segment><metadata><OBJECT_NAME>ORBCOMM FM105</OBJECT_NAME><OBJECT_ID>2015-081C</OBJECT_ID><CENTER_NAME>EARTH</CENTER_NAME><REF_FRAME>TEME</REF_FRAME><TIME_SYSTEM>UTC</TIME_SYSTEM><MEAN_ELEMENT_THEORY>SGP4</MEAN_ELEMENT_THEORY></metadata><data><meanElements><EPOCH>2024-08-21T17:55:56.558496</EPOCH><MEAN_MOTION>14.44565226</MEAN_MOTION><ECCENTRICITY>.0001463</ECCENTRICITY><INCLINATION>47.0012</INCLINATION><RA_OF_ASC_NODE>145.6363</RA_OF_ASC_NODE><ARG_OF_PERICENTER>40.1627</ARG_OF_PERICENTER><MEAN_ANOMALY>319.9361</MEAN_ANOMALY></meanElements><tleParameters><EPHEMERIS_TYPE>0</EPHEMERIS_TYPE><CLASSIFICATION_TYPE>U</CLASSIFICATION_TYPE><NORAD_CAT_ID>41181</NORAD_CAT_ID><ELEMENT_SET_NO>999</ELEMENT_SET_NO><REV_AT_EPOCH>45755</REV_AT_EPOCH><BSTAR>.42222E-3</BSTAR><MEAN_MOTION_DOT>.1316E-4</MEAN_MOTION_DOT><MEAN_MOTION_DDOT>0</MEAN_MOTION_DDOT></tleParameters></data></segment></body></omm>
<omm id="CCSDS_OMM_VERS" version="2.0">
<header><CREATION_DATE/><ORIGINATOR/></header><body><segment><metadata><OBJECT_NAME>ORBCOMM FM110</OBJECT_NAME><OBJECT_ID>2015-081D</OBJECT_ID><CENTER_NAME>EARTH</CENTER_NAME><REF_FRAME>TEME</REF_FRAME><TIME_SYSTEM>UTC</TIME_SYSTEM><MEAN_ELEMENT_THEORY>SGP4</MEAN_ELEMENT_THEORY></metadata><data><meanElements><EPOCH>2024-08-21T09:12:42.339168</EPOCH><MEAN_MOTION>14.57017297</MEAN_MOTION><ECCENTRICITY>.0002619</ECCENTRICITY><INCLINATION>46.9997</INCLINATION><RA_OF_ASC_NODE>261.1050</RA_OF_ASC_NODE><ARG_OF_PERICENTER>252.5688</ARG_OF_PERICENTER><MEAN_ANOMALY>107.4911</MEAN_ANOMALY></meanElements><tleParameters><EPHEMERIS_TYPE>0</EPHEMERIS_TYPE><CLASSIFICATION_TYPE>U</CLASSIFICATION_TYPE><NORAD_CAT_ID>41182</NORAD_CAT_ID><ELEMENT_SET_NO>999</ELEMENT_SET_NO><REV_AT_EPOCH>46060</REV_AT_EPOCH><BSTAR>.47733E-3</BSTAR><MEAN_MOTION_DOT>.2E-4</MEAN_MOTION_DOT><MEAN_MOTION_DDOT>0</MEAN_MOTION_DDOT></tleParameters></data></segment></body></omm>
<omm id="CCSDS_OMM_VERS" version="2.0">
<header><CREATION_DATE/><ORIGINATOR/></header><body><segment><metadata><OBJECT_NAME>ORBCOMM FM118</OBJECT_NAME><OBJECT_ID>2015-081E</OBJECT_ID><CENTER_NAME>EARTH</CENTER_NAME><REF_FRAME>TEME</REF_FRAME><TIME_SYSTEM>UTC</TIME_SYSTEM><MEAN_ELEMENT_THEORY>SGP4</MEAN_ELEMENT_THEORY></metadata><data><meanElements><EPOCH>2024-08-21T11:58:15.385152</EPOCH><MEAN_MOTION>14.57003507</MEAN_MOTION><ECCENTRICITY>.0002792</ECCENTRICITY><INCLINATION>47.0021</INCLINATION><RA_OF_ASC_NODE>260.8953</RA_OF_ASC_NODE><ARG_OF_PERICENTER>247.2071</ARG_OF_PERICENTER><MEAN_ANOMALY>112.8519</MEAN_ANOMALY></meanElements><tleParameters><EPHEMERIS_TYPE>0</EPHEMERIS_TYPE><CLASSIFICATION_TYPE>U</CLASSIFICATION_TYPE><NORAD_CAT_ID>41183</NORAD_CAT_ID><ELEMENT_SET_NO>999</ELEMENT_SET_NO><REV_AT_EPOCH>46080</REV_AT_EPOCH><BSTAR>.44089E-3</BSTAR><MEAN_MOTION_DOT>.1833E-4</MEAN_MOTION_DOT><MEAN_MOTION_DDOT>0</MEAN_MOTION_DDOT></tleParameters></data></segment></body></omm>
<omm id="CCSDS_OMM_VERS" version="2.0">
<header><CREATION_DATE/><ORIGINATOR/></header><body><segment><metadata><OBJECT_NAME>ORBCOMM FM112</OBJECT_NAME><OBJECT_ID>2015-081F</OBJECT_ID><CENTER_NAME>EARTH</CENTER_NAME><REF_FRAME>TEME</REF_FRAME><TIME_SYSTEM>UTC</TIME_SYSTEM><MEAN_ELEMENT_THEORY>SGP4</MEAN_ELEMENT_THEORY></metadata><data><meanElements><EPOCH>2024-08-21T20:08:38.770368</EPOCH><MEAN_MOTION>14.56891820</MEAN_MOTION><ECCENTRICITY>.0001224</ECCENTRICITY><INCLINATION>46.9978</INCLINATION><RA_OF_ASC_NODE>167.9873</RA_OF_ASC_NODE><ARG_OF_PERICENTER>76.5513</ARG_OF_PERICENTER><MEAN_ANOMALY>283.5509</MEAN_ANOMALY></meanElements><tleParameters><EPHEMERIS_TYPE>0</EPHEMERIS_TYPE><CLASSIFICATION_TYPE>U</CLASSIFICATION_TYPE><NORAD_CAT_ID>41184</NORAD_CAT_ID><ELEMENT_SET_NO>999</ELEMENT_SET_NO><REV_AT_EPOCH>46204</REV_AT_EPOCH><BSTAR>.67874E-3</BSTAR><MEAN_MOTION_DOT>.2907E-4</MEAN_MOTION_DOT><MEAN_MOTION_DDOT>0</MEAN_MOTION_DDOT></tleParameters></data></segment></body></omm>
<omm id="CCSDS_OMM_VERS" version="2.0">
<header><CREATION_DATE/><ORIGINATOR/></header><body><segment><metadata><OBJECT_NAME>ORBCOMM FM113</OBJECT_NAME><OBJECT_ID>2015-081G</OBJECT_ID><CENTER_NAME>EARTH</CENTER_NAME><REF_FRAME>TEME</REF_FRAME><TIME_SYSTEM>UTC</TIME_SYSTEM><MEAN_ELEMENT_THEORY>SGP4</MEAN_ELEMENT_THEORY></metadata><data><meanElements><EPOCH>2024-08-21T19:35:42.971712</EPOCH><MEAN_MOTION>14.56900741</MEAN_MOTION><ECCENTRICITY>.0000762</ECCENTRICITY><INCLINATION>46.9997</INCLINATION><RA_OF_ASC_NODE>168.3774</RA_OF_ASC_NODE><ARG_OF_PERICENTER>98.8566</ARG_OF_PERICENTER><MEAN_ANOMALY>261.2406</MEAN_ANOMALY></meanElements><tleParameters><EPHEMERIS_TYPE>0</EPHEMERIS_TYPE><CLASSIFICATION_TYPE>U</CLASSIFICATION_TYPE><NORAD_CAT_ID>41185</NORAD_CAT_ID><ELEMENT_SET_NO>999</ELEMENT_SET_NO><REV_AT_EPOCH>46204</REV_AT_EPOCH><BSTAR>.62623E-3</BSTAR><MEAN_MOTION_DOT>.267E-4</MEAN_MOTION_DOT><MEAN_MOTION_DDOT>0</MEAN_MOTION_DDOT></tleParameters></data></segment></body></omm>

</ndm>
